NORAD_CAT_ID,OBJECT_NAME,OBJECT_TYPE,EPOCH,MEAN_MOTION,ECCENTRICITY,INCLINATION,RA_OF_ASC_NODE,ARG_OF_PERICENTER,MEAN_ANOMALY,BSTAR,MEAN_MOTION_DOT,MEAN_MOTION_DDOT,TLE_LINE0,TLE_LINE1,TLE_LINE2,SEMIMAJOR_AXIS,PERIOD,APOGEE,PERIGEE,DECAYED
53991.0,STARLINK-5118,PAYLOAD,2022-12-20 14:00:01,15.4336166,0.0001531999999999,53.216,79.1691,74.0748,311.6012,-0.013831,-0.00581869,0.0,0 STARLINK-5118,1 53991U 22125AD  22354.58334491 -.00581869  00000-0 -13831-1 0  9998,2 53991  53.2160  79.1691 0001532  74.0748 311.6012 15.43361660  1303,6814.333000000001,93.303,437.242,435.154,0.0
53991.0,STARLINK-5118,PAYLOAD,2022-12-21 14:00:01,15.4205683,0.0001555,53.2164,74.4415,76.0529,106.5591,-0.014277,-0.00575225,0.0,0 STARLINK-5118,1 53991U 22125AD  22355.58334491 -.00575225  00000-0 -14277-1 0  9993,2 53991  53.2164  74.4415 0001555  76.0529 106.5591 15.42056830 12420,6818.177,93.382,441.102,438.982,0.0
53991.0,STARLINK-5118,PAYLOAD,2022-12-21 22:00:00,15.41643536,0.0001175,53.2173,72.8646,83.0904,150.7506,-0.015428,-0.0061018,0.0,0 STARLINK-5118,1 53991U 22125AD  22355.91667824 -.00610180  00000-0 -15428-1 0  9998,2 53991  53.2173  72.8646 0001175  83.0904 150.7506 15.41643536 12477,6819.395,93.407,442.062,440.459,0.0
53991.0,STARLINK-5118,PAYLOAD,2022-12-22 14:00:01,15.40755262,0.0001429,53.2166,69.7231,80.0837,254.7719,-0.01486,-0.00573306,0.0,0 STARLINK-5118,1 53991U 22125AD  22356.58334491 -.00573306  00000-0 -14860-1 0  9990,2 53991  53.2166  69.7231 0001429  80.0837 254.7719 15.40755262  1308,6822.016,93.461,444.856,442.906,0.0
53991.0,STARLINK-5118,PAYLOAD,2022-12-22 22:00:00,15.40324716,0.0001244,53.2169,68.15,84.4134,300.1504,-0.01689,-0.0064448,0.0,0 STARLINK-5118,1 53991U 22125AD  22356.91667824 -.00644480  00000-0 -16890-1 0  9993,2 53991  53.2169  68.1500 0001244  84.4134 300.1504 15.40324716  1300,6823.2869999999975,93.487,446.001,444.30300000000005,0.0
53991.0,STARLINK-5118,PAYLOAD,2022-12-23 06:00:00,15.39907714,0.0001181,53.2176,66.5787,85.1792,348.5228,-0.016331,-0.00609604,0.0,0 STARLINK-5118,1 53991U 22125AD  22357.25001157 -.00609604  00000-0 -16331-1 0  9991,2 53991  53.2176  66.5787 0001181  85.1792 348.5228 15.39907714 12680,6824.519,93.512,447.19,445.578,0.0
53991.0,STARLINK-5118,PAYLOAD,2022-12-23 14:00:01,15.39476413,0.0001233,53.2174,65.012,85.1859,37.1749,-0.016678,-0.00613426,0.0,0 STARLINK-5118,1 53991U 22125AD  22357.58334491 -.00613426  00000-0 -16678-1 0  9998,2 53991  53.2174  65.0120 0001233  85.1859  37.1749 15.39476413  1308,6825.794,93.538,448.5,446.817,0.0
53991.0,STARLINK-5118,PAYLOAD,2022-12-23 22:00:01,15.39034656,0.0001218,53.2172,63.4426,79.5564,91.0132,-0.016607,-0.00602811,0.0,0 STARLINK-5118,1 53991U 22125AD  22357.91668981 -.00602811  00000-0 -16607-1 0  9997,2 53991  53.2172  63.4426 0001218  79.5564  91.0132 15.39034656  1304,6827.1,93.565,449.796,448.133,0.0
53991.0,STARLINK-5118,PAYLOAD,2022-12-24 14:00:01,15.38162189,0.0001230999999999,53.2173,60.3119,89.5046,175.7169,-0.016877,-0.00595843,0.0,0 STARLINK-5118,1 53991U 22125AD  22358.58334491 -.00595843  00000-0 -16877-1 0  9992,2 53991  53.2173  60.3119 0001231  89.5046 175.7169 15.38162189 12888,6829.681,93.618,452.387,450.705,0.0
53991.0,STARLINK-5118,PAYLOAD,2022-12-24 22:00:00,15.37738066,0.0001164,53.2173,58.7457,80.1503,231.6433,-0.017581,-0.00610913,0.0,0 STARLINK-5118,1 53991U 22125AD  22358.91667824 -.00610913  00000-0 -17581-1 0  9997,2 53991  53.2173  58.7457 0001164  80.1503 231.6433 15.37738066  1307,6830.937,93.644,453.597,452.007,0.0
53991.0,STARLINK-5118,PAYLOAD,2022-12-25 14:00:01,15.36870098,0.0001202,53.2172,55.6211,89.1744,314.2041,-0.018068,-0.00617333,0.0,0 STARLINK-5118,1 53991U 22125AD  22359.58334491 -.00617333  00000-0 -18068-1 0  9996,2 53991  53.2172  55.6211 0001202  89.1744 314.2041 15.36870098 13047,6833.5080000000025,93.697,456.195,454.552,0.0
53991.0,STARLINK-5118,PAYLOAD,2022-12-26 00:00:00,15.3632585,0.0001273,53.2172,53.6673,78.6977,110.8647,-0.018296,-0.00614402,0.0,0 STARLINK-5118,1 53991U 22125AD  22360.00001157 -.00614402  00000-0 -18296-1 0  9992,2 53991  53.2172  53.6673 0001273  78.6977 110.8647 15.36325850  1305,6835.121999999999,93.73,457.857,456.117,0.0
53991.0,STARLINK-5118,PAYLOAD,2022-12-26 14:00:01,15.35558597,0.0001323,53.2173,50.9395,78.8239,98.0263,-0.018367,-0.00595855,0.0,0 STARLINK-5118,1 53991U 22125AD  22360.58334491 -.00595855  00000-0 -18367-1 0  9994,2 53991  53.2173  50.9395 0001323  78.8239  98.0263 15.35558597  1302,6837.399,93.777,460.168,458.359,0.0
53991.0,STARLINK-5118,PAYLOAD,2022-12-26 22:00:00,15.35131458,0.0001303,53.2174,49.3792,75.8295,144.4652,-0.018971,-0.00613104,0.0,0 STARLINK-5118,1 53991U 22125AD  22360.91667824 -.00613104  00000-0 -18971-1 0  9999,2 53991  53.2174  49.3792 0001303  75.8295 144.4652 15.35131458 13240,6838.667,93.803,461.423,459.641,0.0
53991.0,STARLINK-5118,PAYLOAD,2022-12-27 00:00:00,15.35022597,0.000118,53.2173,48.9896,77.8956,243.1793,-0.019017,-0.00612477,0.0,0 STARLINK-5118,1 53991U 22125AD  22361.00001157 -.00612477  00000-0 -19017-1 0  9995,2 53991  53.2173  48.9896 0001180  77.8956 243.1793 15.35022597  1308,6838.99,93.81,461.662,460.048,0.0
53991.0,STARLINK-5118,PAYLOAD,2022-12-27 14:00:01,15.34267195,0.0001171,53.2173,46.267,80.187,225.4323,-0.01966,-0.00617696,0.0,0 STARLINK-5118,1 53991U 22125AD  22361.58334491 -.00617696  00000-0 -19660-1 0  9990,2 53991  53.2173  46.2670 0001171  80.1870 225.4323 15.34267195  1307,6841.235,93.856,463.901,462.299,0.0
53991.0,STARLINK-5118,PAYLOAD,2022-12-27 22:00:00,15.33830935,0.0001225,53.2174,44.71,68.3454,279.1582,-0.019872,-0.00615866,0.0,0 STARLINK-5118,1 53991U 22125AD  22361.91667824 -.00615866  00000-0 -19872-1 0  9998,2 53991  53.2174  44.7100 0001225  68.3454 279.1582 15.33830935  1305,6842.531999999997,93.883,465.235,463.559,0.0
53991.0,STARLINK-5118,PAYLOAD,2022-12-28 14:00:01,15.32964691,0.0001224,53.2172,41.6039,67.6169,2.0831,-0.020475,-0.00617243,0.0,0 STARLINK-5118,1 53991U 22125AD  22362.58334491 -.00617243  00000-0 -20475-1 0  9995,2 53991  53.2172  41.6039 0001224  67.6169   2.0831 15.32964691  1300,6845.11,93.936,467.812,466.137,0.0
53991.0,STARLINK-5118,PAYLOAD,2022-12-28 22:00:00,15.325235500000002,0.0001355,53.2175,40.0498,59.8038,50.2181,-0.0204199999999999,-0.00607728,0.0,0 STARLINK-5118,1 53991U 22125AD  22362.91667824 -.00607728  00000-0 -20420-1 0  9998,2 53991  53.2175  40.0498 0001355  59.8038  50.2181 15.32523550  1306,6846.4230000000025,93.963,469.216,467.36,0.0
53991.0,STARLINK-5118,PAYLOAD,2022-12-29 06:00:02,15.32096338,0.0001445,53.2174,38.4988,63.0996,86.7784,-0.021071,-0.00618001,0.0,0 STARLINK-5118,1 53991U 22125AD  22363.25002315 -.00618001  00000-0 -21071-1 0  9993,2 53991  53.2174  38.4988 0001445  63.0996  86.7784 15.32096338 13608,6847.696,93.989,470.55,468.571,0.0
53991.0,STARLINK-5118,PAYLOAD,2022-12-29 14:00:01,15.3166747,0.0001351,53.2171,36.9499,62.9039,126.1802,-0.021563,-0.00623554,0.0,0 STARLINK-5118,1 53991U 22125AD  22363.58334491 -.00623554  00000-0 -21563-1 0  9997,2 53991  53.2171  36.9499 0001351  62.9039 126.1802 15.31667470  1301,6848.974,94.015,471.764,469.914,0.0
53991.0,STARLINK-5118,PAYLOAD,2022-12-30 14:00:01,15.30352505,0.0001279,53.2171,32.3052,66.1639,237.6195,-0.021765,-0.00605288,0.0,0 STARLINK-5118,1 53991U 22125AD  22364.58334491 -.00605288  00000-0 -21765-1 0  9996,2 53991  53.2171  32.3052 0001279  66.1639 237.6195 15.30352505 13807,6852.897,94.096,475.638,473.885,0.0
53991.0,STARLINK-5118,PAYLOAD,2022-12-31 14:00:01,15.29053526,0.000132,53.217,27.6699,61.6035,352.1776,-0.022833,-0.00609615,0.0,0 STARLINK-5118,1 53991U 22125AD  22365.58334491 -.00609615  00000-0 -22833-1 0  9992,2 53991  53.2170  27.6699 0001320  61.6035 352.1776 15.29053526 13961,6856.776999999999,94.176,479.547,477.737,0.0
53991.0,STARLINK-5118,PAYLOAD,2022-12-31 22:00:00,15.28614413,0.0001399,53.2173,26.125,57.2273,32.1811,-0.022902,-0.00603649,0.0,0 STARLINK-5118,1 53991U 22125AD  22365.91667824 -.00603649  00000-0 -22902-1 0  9996,2 53991  53.2173  26.1250 0001399  57.2273  32.1811 15.28614413  1309,6858.09,94.203,480.915,478.996,0.0
53991.0,STARLINK-5118,PAYLOAD,2023-01-01 14:00:01,15.27755938,0.0001409999999999,53.2168,23.0435,60.7367,98.3482,-0.024058,-0.00616688,0.0,0 STARLINK-5118,1 53991U 22125AD  23001.58334491 -.00616688  00000-0 -24058-1 0  9999,2 53991  53.2168  23.0435 0001410  60.7367  98.3482 15.27755938 14119,6860.659000000002,94.256,483.492,481.557,0.0
53991.0,STARLINK-5118,PAYLOAD,2023-01-02 00:00:00,15.27211552,0.0001346,53.2175,21.1172,62.8319,228.7467,-0.024366,-0.00614417,0.0,0 STARLINK-5118,1 53991U 22125AD  23002.00001157 -.00614417  00000-0 -24366-1 0  9997,2 53991  53.2175  21.1172 0001346  62.8319 228.7467 15.27211552  1300,6862.29,94.289,485.078,483.231,0.0
53991.0,STARLINK-5118,PAYLOAD,2023-01-02 14:00:01,15.26459497,0.0001278,53.2165,18.4264,65.6453,194.0489,-0.025406,-0.00625331,0.0,0 STARLINK-5118,1 53991U 22125AD  23002.58334491 -.00625331  00000-0 -25406-1 0  9993,2 53991  53.2165  18.4264 0001278  65.6453 194.0489 15.26459497  1304,6864.543000000002,94.336,487.286,485.531,0.0
53991.0,STARLINK-5118,PAYLOAD,2023-01-02 22:00:00,15.26015889,0.0001255,53.2171,16.8879,71.8493,220.3445,-0.025129,-0.00611225,0.0,0 STARLINK-5118,1 53991U 22125AD  23002.91667824 -.00611225  00000-0 -25129-1 0  9998,2 53991  53.2171  16.8879 0001255  71.8493 220.3445 15.26015889 14316,6865.874,94.363,488.6,486.877,0.0
53991.0,STARLINK-5118,PAYLOAD,2023-01-03 14:00:01,15.25149602,0.0001236,53.2166,13.8185,71.6851,283.9309,-0.025912,-0.00613786,0.0,0 STARLINK-5118,1 53991U 22125AD  23003.58334491 -.00613786  00000-0 -25912-1 0  9997,2 53991  53.2166  13.8185 0001236  71.6851 283.9309 15.25149602  1301,6868.473000000001,94.417,491.187,489.489,0.0
